NORAD_CAT_ID,OBJECT_NAME,OBJECT_TYPE,EPOCH,MEAN_MOTION,ECCENTRICITY,INCLINATION,RA_OF_ASC_NODE,ARG_OF_PERICENTER,MEAN_ANOMALY,BSTAR,MEAN_MOTION_DOT,MEAN_MOTION_DDOT,TLE_LINE0,TLE_LINE1,TLE_LINE2,SEMIMAJOR_AXIS,PERIOD,APOGEE,PERIGEE,DECAYED
37853,RAX-2,PAYLOAD,2020-01-18 13:42:07,15.03860255,0.0168832,101.7231,19.6615,177.9903,182.2023,1.3012999999999999e-05,8.1e-07,0.0,0 RAX-2,1 37853U 11061D   20018.57092477 +.00000081 +00000-0 +13013-4 0  9998,2 37853 101.7231 019.6615 0168832 177.9903 182.2023 15.03860255448150,6933.143,95.75399999999999,672.062,437.955,0.0
37853,RAX-2,PAYLOAD,2020-01-18 20:05:21,15.03860483,0.0168832,101.7231,20.0636,177.2062,183.0132,1.4999000000000007e-05,1.18e-06,0.0,0 RAX-2,1 37853U 11061D   20018.83705722  .00000118  00000-0  14999-4 0  9996,2 37853 101.7231  20.0636 0168832 177.2062 183.0132 15.03860483448678,6933.143,95.75399999999999,672.061,437.954,0.0
37853,RAX-2,PAYLOAD,2020-01-19 02:28:35,15.03860501,0.0168832,101.723,20.4656,176.4224,183.8238,1.5029000000000001e-05,1.19e-06,0.0,0 RAX-2,1 37853U 11061D   20019.10318976 +.00000119 +00000-0 +15029-4 0  9994,2 37853 101.7230 020.4656 0168832 176.4224 183.8238 15.03860501448232,6933.143,95.75399999999999,672.061,437.954,0.0
37853,RAX-2,PAYLOAD,2020-01-19 13:39:14,15.03861414,0.016882499999999998,101.723,21.1692,175.0479,185.2452,2.3588000000000002e-05,2.81e-06,0.0,0 RAX-2,1 37853U 11061D   20019.56892155 +.00000281 +00000-0 +23588-4 0  9999,2 37853 101.7230 021.1692 0168825 175.0479 185.2452 15.03861414448305,6933.14,95.75399999999999,672.054,437.95599999999996,0.0
37853,RAX-2,PAYLOAD,2020-01-19 23:14:05,15.03861968,0.0168822,101.723,21.7722,173.8726,186.4605,2.7959e-05,3.64e-06,0.0,0 RAX-2,1 37853U 11061D   20019.96811998  .00000364  00000-0  27959-4 0  9997,2 37853 101.7230  21.7722 0168822 173.8726 186.4605 15.03861968448849,6933.138000000001,95.75299999999999,672.05,437.957,0.0
37853,RAX-2,PAYLOAD,2020-01-20 13:36:21,15.03862285,0.016881999999999998,101.723,22.6768,172.1061,188.2869,3.0681e-05,4.15e-06,0.0,0 RAX-2,1 37853U 11061D   20020.56691796 +.00000415 +00000-0 +30681-4 0  9990,2 37853 101.7230 022.6768 0168820 172.1061 188.2869 15.03862285448453,6933.137,95.75299999999999,672.047,437.957,0.0
37853,RAX-2,PAYLOAD,2020-01-20 21:35:23,15.03862786,0.0168815,101.723,23.1793,171.1262,189.2998,3.4342e-05,4.85e-06,0.0,0 RAX-2,1 37853U 11061D   20020.89958313 +.00000485 +00000-0 +34342-4 0  9992,2 37853 101.7230 023.1793 0168815 171.1262 189.2998 15.03862786448509,6933.1359999999995,95.75299999999999,672.0419999999998,437.959,0.0
37853,RAX-2,PAYLOAD,2020-01-21 02:22:49,15.03863047,0.0168821,101.723,23.4808,170.53799999999995,189.9079,3.6159000000000004e-05,5.19e-06,0.0,0 RAX-2,1 37853U 11061D   20021.09918224  .00000519  00000-0  36159-4 0  9998,2 37853 101.7230  23.4808 0168821 170.5380 189.9079 15.03863047449015,6933.135,95.75299999999999,672.046,437.954,0.0
37853,RAX-2,PAYLOAD,2020-01-21 05:34:26,15.03862788,0.0168823,101.723,23.6818,170.1448,190.3144,3.4002e-05,4.78e-06,0.0,0 RAX-2,1 37853U 11061D   20021.23224858 +.00000478 +00000-0 +34002-4 0  9996,2 37853 101.7230 023.6818 0168823 170.1448 190.3144 15.03862788448559,6933.1359999999995,95.75299999999999,672.048,437.95300000000003,0.0
37853,RAX-2,PAYLOAD,2020-01-21 11:57:40,15.03863151,0.016881900000000002,101.723,24.0839,169.3602,191.1253,3.6259e-05,5.21e-06,0.0,0 RAX-2,1 37853U 11061D   20021.49838065 +.00000521 +00000-0 +36259-4 0  9990,2 37853 101.7230 024.0839 0168819 169.3602 191.1253 15.03863151448593,6933.135,95.75299999999999,672.044,437.955,0.0
37853,RAX-2,PAYLOAD,2020-01-22 11:54:46,15.03864569,0.016881200000000002,101.7231,25.5915,166.4171,194.1667,4.4121000000000013e-05,6.7e-06,0.0,0 RAX-2,1 37853U 11061D   20022.49637521  .00000670  00000-0  44121-4 0  9997,2 37853 101.7231  25.5915 0168812 166.4171 194.1667 15.03864569449224,6933.13,95.75299999999999,672.035,437.95599999999996,0.0
37853,RAX-2,PAYLOAD,2020-01-23 11:51:53,15.03866272,0.016881200000000002,101.7232,27.0991,163.4712,197.2097,5.0749e-05,7.96e-06,0.0,0 RAX-2,1 37853U 11061D   20023.49436818 +.00000796 +00000-0 +50749-4 0  9996,2 37853 101.7232 027.0991 0168812 163.4712 197.2097 15.03866272448890,6933.125,95.75299999999999,672.029,437.95099999999996,0.0
37853,RAX-2,PAYLOAD,2020-01-23 16:39:18,15.03866494,0.0168806,101.7232,27.4006,162.8816,197.8186,5.102e-05,8.01e-06,0.0,0 RAX-2,1 37853U 11061D   20023.69396669  .00000801  00000-0  51020-4 0  9997,2 37853 101.7232  27.4006 0168806 162.8816 197.8186 15.03866494449401,6933.124,95.75299999999999,672.025,437.954,0.0
37853,RAX-2,PAYLOAD,2020-01-24 13:24:48,15.03867923,0.0168804,101.7233,28.7072,160.3262,200.4566,5.3131000000000003e-05,8.41e-06,0.0,0 RAX-2,1 37853U 11061D   20024.55889250 +.00000841 +00000-0 +53131-4 0  9995,2 37853 101.7233 028.7072 0168804 160.3262 200.4566 15.03867923449057,6933.12,95.75299999999999,672.0189999999999,437.95099999999996,0.0
37853,RAX-2,PAYLOAD,2020-01-25 02:11:15,15.03869096,0.0168801,101.7234,29.5113,158.7539,202.0791,5.528600000000001e-05,8.82e-06,0.0,0 RAX-2,1 37853U 11061D   20025.09115358  .00000882  00000-0  55286-4 0  9994,2 37853 101.7234  29.5113 0168801 158.7539 202.0791 15.03869096449611,6933.116,95.75299999999999,672.013,437.95,0.0
37853,RAX-2,PAYLOAD,2020-01-25 13:21:54,15.038697599999999,0.0168801,101.7235,30.2149,157.3755,203.5011,5.367600000000001e-05,8.51e-06,0.0,0 RAX-2,1 37853U 11061D   20025.55688188 +.00000851 +00000-0 +53676-4 0  9998,2 37853 101.7235 030.2149 0168801 157.3755 203.5011 15.03869760449209,6933.114000000001,95.75299999999999,672.0110000000002,437.94800000000004,0.0
37853,RAX-2,PAYLOAD,2020-01-26 06:55:47,15.038712099999998,0.0168801,101.7237,31.3205,155.2102,205.7339,5.3343999999999996e-05,8.45e-06,0.0,0 RAX-2,1 37853U 11061D   20026.28873953  .00000845  00000-0  53344-4 0  9990,2 37853 101.7237  31.3205 0168801 155.2102 205.7339 15.03871210449793,6933.11,95.75299999999999,672.0060000000002,437.94300000000004,0.0
37853,RAX-2,PAYLOAD,2020-01-27 05:17:04,15.03872917,0.016880000000000003,101.7239,32.7278,152.4539,208.5744,5.0145e-05,7.85e-06,0.0,0 RAX-2,1 37853U 11061D   20027.22019328 +.00000785 +00000-0 +50145-4 0  9992,2 37853 101.7239 032.7278 0168800 152.4539 208.5744 15.03872917449451,6933.105,95.75299999999999,672.0,437.939,0.0
37853,RAX-2,PAYLOAD,2020-01-27 11:40:18,15.03873397,0.0168802,101.72399999999999,33.1298,151.6659,209.3861,4.8694e-05,7.57e-06,0.0,0 RAX-2,1 37853U 11061D   20027.48632260  .00000757  00000-0  48694-4 0  9991,2 37853 101.7240  33.1298 0168802 151.6659 209.3861 15.03873397449975,6933.103,95.75299999999999,672.0,437.936,0.0
37853,RAX-2,PAYLOAD,2020-01-27 21:15:08,15.03874073,0.0168804,101.72399999999999,33.733000000000004,150.4854,210.6017,4.6559e-05,7.17e-06,0.0,0 RAX-2,1 37853U 11061D   20027.88551632 +.00000717 +00000-0 +46559-4 0  9992,2 37853 101.7240 033.7330 0168804 150.4854 210.6017 15.03874073449558,6933.101,95.75299999999999,672.0,437.93199999999996,0.0
37853,RAX-2,PAYLOAD,2020-01-28 13:13:12,15.03875303,0.0168817,101.7242,34.7381,148.5152,212.6297,4.407e-05,6.7e-06,0.0,0 RAX-2,1 37853U 11061D   20028.55083868 +.00000670 +00000-0 +44070-4 0  9992,2 37853 101.7242 034.7381 0168817 148.5152 212.6297 15.03875303449650,6933.097,95.75299999999999,672.005,437.92,0.0
37853,RAX-2,PAYLOAD,2020-01-28 19:36:25,15.03875696,0.016881599999999997,101.7242,35.1402,147.7276,213.44,4.2368999999999994e-05,6.38e-06,0.0,0 RAX-2,1 37853U 11061D   20028.81696739  .00000638  00000-0  42369-4 0  9991,2 37853 101.7242  35.1402 0168816 147.7276 213.4400 15.03875696450175,6933.096,95.75299999999999,672.003,437.91900000000004,0.0
37853,RAX-2,PAYLOAD,2020-01-28 21:12:14,15.03875832,0.016881599999999997,101.7242,35.2407,147.5311,213.6421,4.2244e-05,6.36e-06,0.0,0 RAX-2,1 37853U 11061D   20028.88349954 +.00000636 +00000-0 +42244-4 0  9992,2 37853 101.7242 035.2407 0168816 147.5311 213.6421 15.03875832449703,6933.096,95.75299999999999,672.002,437.91900000000004,0.0
37853,RAX-2,PAYLOAD,2020-01-29 11:34:29,15.03877267,0.0168829,101.7244,36.1454,145.7574,215.4661,4.2397e-05,6.39e-06,0.0,0 RAX-2,1 37853U 11061D   20029.48228824 +.00000639 +00000-0 +42397-4 0  9993,2 37853 101.7244 036.1454 0168829 145.7574 215.4661 15.03877267449791,6933.0909999999985,95.75200000000001,672.007,437.905,0.0
37853,RAX-2,PAYLOAD,2020-01-30 05:08:21,15.038785899999999,0.0168832,101.7245,37.2511,143.5915,217.6919,4.031e-05,5.99e-06,0.0,0 RAX-2,1 37853U 11061D   20030.21414047  .00000599  00000-0  40310-4 0  9998,2 37853 101.7245  37.2511 0168832 143.5915 217.6919 15.03878590450384,6933.0869999999995,95.75200000000001,672.005,437.899,0.0
37853,RAX-2,PAYLOAD,2020-01-30 06:44:10,15.03878691,0.0168834,101.7245,37.3516,143.3944,217.8944,4.0015e-05,5.94e-06,0.0,0 RAX-2,1 37853U 11061D   20030.28067246 +.00000594 +00000-0 +40015-4 0  9997,2 37853 101.7245 037.3516 0168834 143.3944 217.8944 15.03878691449911,6933.0869999999995,95.75200000000001,672.0060000000002,437.898,0.0
37853,RAX-2,PAYLOAD,2020-01-31 06:41:15,15.03880735,0.0168849,101.7245,38.8595,140.4417,220.9259,4.0240999999999996e-05,5.98e-06,0.0,0 RAX-2,1 37853U 11061D   20031.27865106  .00000598  00000-0  40241-4 0  9993,2 37853 101.7245  38.8595 0168849 140.4417 220.9259 15.03880735450540,6933.081,95.75200000000001,672.01,437.881,0.0
37853,RAX-2,PAYLOAD,2020-01-31 11:28:40,15.0388104,0.0168851,101.7245,39.1611,139.8504,221.5326,3.9113e-05,5.77e-06,0.0,0 RAX-2,1 37853U 11061D   20031.47824657 +.00000577 +00000-0 +39113-4 0  9994,2 37853 101.7245 039.1611 0168851 139.8504 221.5326 15.03881040450097,6933.08,95.75200000000001,672.01,437.879,0.0
37853,RAX-2,PAYLOAD,2020-01-31 16:16:05,15.03881389,0.0168851,101.7245,39.4626,139.2603,222.1379,3.9016e-05,5.75e-06,0.0,0 RAX-2,1 37853U 11061D   20031.67784201 +.00000575 +00000-0 +39016-4 0  9996,2 37853 101.7245 039.4626 0168851 139.2603 222.1379 15.03881389450125,6933.079000000002,95.75200000000001,672.0089999999999,437.87800000000004,0.0
